STARLINK-5633           
1 55410U 23014V   26068.47159436 -.00000130  00000+0 -30742-5 0  9992
2 55410  69.9989  84.8422 0003524 267.6974  92.3782 14.98332032171533
HAWK-10C                
1 60575U 24149DM  26068.80000012  .00002841  00000+0  25720-3 0  9999
2 60575  97.6791 145.3128 0003886  47.6078 312.5472 14.96177491 85124
